NORAD_CAT_ID,OBJECT_NAME,OBJECT_TYPE,EPOCH,MEAN_MOTION,ECCENTRICITY,INCLINATION,RA_OF_ASC_NODE,ARG_OF_PERICENTER,MEAN_ANOMALY,BSTAR,MEAN_MOTION_DOT,MEAN_MOTION_DDOT,TLE_LINE0,TLE_LINE1,TLE_LINE2,SEMIMAJOR_AXIS,PERIOD,APOGEE,PERIGEE,DECAYED
55310.0,STARLINK-5309,PAYLOAD,2023-11-10 12:35:15,14.9833236,0.0002454,70.0007,348.1104,258.8031,101.2852,-2.7426e-05,-4.2e-06,0.0,0 STARLINK-5309,1 55310U 23010AT  23314.52448126 -.00000420  00000-0 -27426-4 0  9998,2 55310  70.0007 348.1104 0002454 258.8031 101.2852 14.98332360 46427,6950.186,96.107,573.756,570.345,0.0
55310.0,STARLINK-5309,PAYLOAD,2023-11-11 11:01:07,14.98336652,0.0002232,70.001,345.7527,255.9606,104.1305,-0.00013646,-1.721e-05,0.0,0 STARLINK-5309,1 55310U 23010AT  23315.45911607 -.00001721  00000-0 -13646-3 0  9993,2 55310  70.0010 345.7527 0002232 255.9606 104.1305 14.98336652 46246,6950.172,96.107,573.589,570.486,0.0
55310.0,STARLINK-5309,PAYLOAD,2023-11-11 12:37:14,14.98380891,0.0002206,70.0005,345.5838,253.4305,106.6612,-0.00086332,-0.00010392,0.0,0 STARLINK-5309,1 55310U 23010AT  23315.52586417 -.00010392  00000-0 -86332-3 0  9994,2 55310  70.0005 345.5838 0002206 253.4305 106.6612 14.98380891 46571,6950.036,96.104,573.434,570.367,0.0
55310.0,STARLINK-5309,PAYLOAD,2023-11-11 19:01:48,14.98327974,0.0002237,70.0008,344.9101,277.075,83.0155,6.2924e-05,6.58e-06,0.0,0 STARLINK-5309,1 55310U 23010AT  23315.79291690  .00000658  00000-0  62924-4 0  9993,2 55310  70.0008 344.9101 0002237 277.0750  83.0155 14.98327974 46618,6950.199,96.107,573.619,570.509,0.0
55310.0,STARLINK-5309,PAYLOAD,2023-11-12 11:03:08,14.9832917,0.0002228,70.0003,343.2271,262.6541,97.4365,5.5625e-05,5.71e-06,0.0,0 STARLINK-5309,1 55310U 23010AT  23316.46051188  .00000571  00000-0  55625-4 0  9998,2 55310  70.0003 343.2271 0002228 262.6541  97.4365 14.98329170 46398,6950.195,96.107,573.609,570.512,0.0
55310.0,STARLINK-5309,PAYLOAD,2023-11-13 11:05:08,14.98334143,0.0002619,69.9998,340.7023,267.6322,92.4537,4.8645e-05,4.88e-06,0.0,0 STARLINK-5309,1 55310U 23010AT  23317.46190588  .00000488  00000-0  48645-4 0  9998,2 55310  69.9998 340.7023 0002619 267.6322  92.4537 14.98334143 46540,6950.18,96.107,573.865,570.225,0.0
55310.0,STARLINK-5309,PAYLOAD,2023-11-13 19:05:49,14.98324209,0.0002498,70.0003,339.8607,258.3151,101.7728,7.0913e-05,7.53e-06,0.0,0 STARLINK-5309,1 55310U 23010AT  23317.79571114  .00000753  00000-0  70913-4 0  9990,2 55310  70.0003 339.8607 0002498 258.3151 101.7728 14.98324209 46592,6950.211,96.107,573.812,570.34,0.0
55310.0,STARLINK-5309,PAYLOAD,2023-11-14 11:07:09,14.98329879,0.000265,69.9995,338.1766,266.8158,93.2697,-4.4933e-05,-6.29e-06,0.0,0 STARLINK-5309,1 55310U 23010AT  23318.46330987 -.00000629  00000-0 -44933-4 0  9993,2 55310  69.9995 338.1766 0002650 266.8158  93.2697 14.98329879 47014,6950.193,96.107,573.9,570.216,0.0
55310.0,STARLINK-5309,PAYLOAD,2023-11-14 19:07:50,14.98329859,0.0002751,70.0001,337.335,268.6932,91.3912,-4.1544e-05,-5.89e-06,0.0,0 STARLINK-5309,1 55310U 23010AT  23318.79710968 -.00000589  00000-0 -41544-4 0  9990,2 55310  70.0001 337.3350 0002751 268.6932  91.3912 14.98329859 46743,6950.193,96.107,573.97,570.146,0.0
55310.0,STARLINK-5309,PAYLOAD,2023-11-15 11:09:10,14.98326504,0.0002629,69.9994,335.6517,266.5888,93.4971,9.7891e-05,1.075e-05,0.0,0 STARLINK-5309,1 55310U 23010AT  23319.46470782  .00001075  00000-0  97891-4 0  9997,2 55310  69.9994 335.6517 0002629 266.5888  93.4971 14.98326504 47167,6950.204,96.107,573.896,570.241,0.0
55310.0,STARLINK-5309,PAYLOAD,2023-11-15 19:09:51,14.98323807,0.0002598,70.0,334.8114,280.9319,79.1547,7.8319e-05,8.41e-06,0.0,0 STARLINK-5309,1 55310U 23010AT  23319.79851163  .00000841  00000-0  78319-4 0  9993,2 55310  70.0000 334.8114 0002598 280.9319  79.1547 14.98323807 46898,6950.212,96.107,573.883,570.271,0.0
55310.0,STARLINK-5309,PAYLOAD,2023-11-16 09:35:04,14.98319709,0.0002255,70.0011,333.2959,264.839,95.2512,5.0582e-05,5.11e-06,0.0,0 STARLINK-5309,1 55310U 23010AT  23320.39935489  .00000511  00000-0  50582-4 0  9991,2 55310  70.0011 333.2959 0002255 264.8390  95.2512 14.98319709 47304,6950.225,96.108,573.657,570.522,0.0
55310.0,STARLINK-5309,PAYLOAD,2023-11-17 00:00:16,14.98331605,0.0002581,69.9999,331.7799,268.193,91.8933,-5.6057e-07,-1e-06,0.0,0 STARLINK-5309,1 55310U 23010AT  23321.00018880 -.00000100  00000-0 -56057-6 0  9998,2 55310  69.9999 331.7799 0002581 268.1930  91.8933 14.98331605 47072,6950.188,96.107,573.847,570.259,0.0
55310.0,STARLINK-5309,PAYLOAD,2023-11-17 09:37:05,14.98324642,0.0002094,70.0011,330.7717,265.956,94.136,-5.6662e-06,-1.6e-06,0.0,0 STARLINK-5309,1 55310U 23010AT  23321.40075364 -.00000160  00000-0 -56662-5 0  9999,2 55310  70.0011 330.7717 0002094 265.9560  94.1360 14.98324642 47457,6950.209,96.107,573.53,570.619,0.0
55310.0,STARLINK-5309,PAYLOAD,2023-11-17 17:37:45,14.98323607,0.0001505,70.0031,329.9299,292.0877,68.0122,6.1225e-06,-2e-07,0.0,0 STARLINK-5309,1 55310U 23010AT  23321.73455768 -.00000020  00000-0  61225-5 0  9990,2 55310  70.0031 329.9299 0001505 292.0877  68.0122 14.98323607 47188,6950.213,96.107,573.124,571.032,0.0
55310.0,STARLINK-5309,PAYLOAD,2023-11-18 03:14:33,14.98325995,0.0002748,70.0008,328.9201,273.8096,86.2749,1.9134e-05,1.35e-06,0.0,0 STARLINK-5309,1 55310U 23010AT  23322.13511090  .00000135  00000-0  19134-4 0  9993,2 55310  70.0008 328.9201 0002748 273.8096  86.2749 14.98325995 47240,6950.205,96.107,573.98,570.16,0.0
55310.0,STARLINK-5309,PAYLOAD,2023-11-18 09:39:05,14.98325733,0.0002235,70.0006,328.2457,264.8415,95.2489,1.8962e-05,1.33e-06,0.0,0 STARLINK-5309,1 55310U 23010AT  23322.40215127  .00000133  00000-0  18962-4 0  9991,2 55310  70.0006 328.2457 0002235 264.8415  95.2489 14.98325733 47601,6950.206,96.107,573.624,570.518,0.0
55310.0,STARLINK-5309,PAYLOAD,2023-11-18 17:39:45,14.98330132,0.0002313,70.0014,327.4031,272.4535,87.636,1.7984e-05,1.22e-06,0.0,0 STARLINK-5309,1 55310U 23010AT  23322.73594893  .00000122  00000-0  17984-4 0  9998,2 55310  70.0014 327.4031 0002313 272.4535  87.6360 14.98330132 47651,6950.192,96.107,573.665,570.45,0.0
55310.0,STARLINK-5309,PAYLOAD,2023-11-19 03:16:34,14.9832894,0.0002666,69.9997,326.3945,269.4001,90.6852,1.5135e-05,8.8e-07,0.0,0 STARLINK-5309,1 55310U 23010AT  23323.13650792  .00000088  00000-0  15135-4 0  9991,2 55310  69.9997 326.3945 0002666 269.4001  90.6852 14.98328940 47390,6950.196,96.107,573.914,570.208,0.0
55310.0,STARLINK-5309,PAYLOAD,2023-11-19 09:41:06,14.98325922,0.0002316,70.0003,325.721,261.5862,98.5034,-9.5827e-06,-2.07e-06,0.0,0 STARLINK-5309,1 55310U 23010AT  23323.40355075 -.00000207  00000-0 -95827-5 0  9999,2 55310  70.0003 325.7210 0002316 261.5862  98.5034 14.98325922 47755,6950.206,96.107,573.68,570.461,0.0
55310.0,STARLINK-5309,PAYLOAD,2023-11-19 17:41:47,14.98328233,0.0002316,70.0005,324.8783,273.6606,86.4288,-1.7669e-05,-3.04e-06,0.0,0 STARLINK-5309,1 55310U 23010AT  23323.73735055 -.00000304  00000-0 -17669-4 0  9990,2 55310  70.0005 324.8783 0002316 273.6606  86.4288 14.98328233 47803,6950.198,96.107,573.673,570.454,0.0
55310.0,STARLINK-5309,PAYLOAD,2023-11-20 03:18:35,14.9833181,0.0002852,69.999,323.8691,271.2659,88.8173,-1.0021e-05,-2.13e-06,0.0,0 STARLINK-5309,1 55310U 23010AT  23324.13790577 -.00000213  00000-0 -10021-4 0  9999,2 55310  69.9990 323.8691 0002852 271.2659  88.8173 14.98331810 47542,6950.187,96.107,574.034,570.07,0.0
55310.0,STARLINK-5309,PAYLOAD,2023-11-20 09:43:07,14.9833304,0.0002732,69.9992,323.1951,268.1056,91.979,1.5044e-05,8.7e-07,0.0,0 STARLINK-5309,1 55310U 23010AT  23324.40494374  .00000087  00000-0  15044-4 0  9992,2 55310  69.9992 323.1951 0002732 268.1056  91.9790 14.98333040 47906,6950.183,96.107,573.947,570.15,0.0
55310.0,STARLINK-5309,PAYLOAD,2023-11-20 17:43:47,14.98330105,0.0002714,69.9996,322.3535,271.2823,88.8025,-7.4253e-06,-1.82e-06,0.0,0 STARLINK-5309,1 55310U 23010AT  23324.73874607 -.00000182  00000-0 -74253-5 0  9995,2 55310  69.9996 322.3535 0002714 271.2823  88.8025 14.98330105 47956,6950.193,96.107,573.944,570.171,0.0
55310.0,STARLINK-5309,PAYLOAD,2023-11-21 03:20:35,14.98330065,0.0002889,69.9992,321.3439,271.1455,88.9373,1.5559e-05,9.3e-07,0.0,0 STARLINK-5309,1 55310U 23010AT  23325.13930453  .00000093  00000-0  15559-4 0  9994,2 55310  69.9992 321.3439 0002889 271.1455  88.9373 14.98330065 47690,6950.193,96.107,574.066,570.05,0.0
55310.0,STARLINK-5309,PAYLOAD,2023-11-21 09:45:07,14.98331722,0.0002655,69.9997,320.6713,264.9981,95.0875,4.1598e-05,4.03e-06,0.0,0 STARLINK-5309,1 55310U 23010AT  23325.40634232  .00000403  00000-0  41598-4 0  9997,2 55310  69.9997 320.6713 0002655 264.9981  95.0875 14.98331722 48055,6950.188,96.107,573.898,570.207,0.0
55310.0,STARLINK-5309,PAYLOAD,2023-11-22 03:22:36,14.98328509,0.0002878,69.9995,318.8189,269.9044,90.1785,-9.5888e-06,-2.07e-06,0.0,0 STARLINK-5309,1 55310U 23010AT  23326.14070497 -.00000207  00000-0 -95888-5 0  9992,2 55310  69.9995 318.8189 0002878 269.9044  90.1785 14.98328509 47842,6950.198,96.107,574.063,570.062,0.0
55310.0,STARLINK-5309,PAYLOAD,2023-11-22 09:47:09,14.98325907,0.000236,70.0003,318.1456,260.0349,100.0544,7.4612e-05,7.97e-06,0.0,0 STARLINK-5309,1 55310U 23010AT  23326.40774494  .00000797  00000-0  74612-4 0  9992,2 55310  70.0003 318.1456 0002360 260.0349 100.0544 14.98325907 48205,6950.206,96.107,573.711,570.43,0.0
55310.0,STARLINK-5309,PAYLOAD,2023-11-23 03:24:37,14.98334577,0.0002699,69.9996,316.2937,267.2301,92.8549,2.8329e-05,2.45e-06,0.0,0 STARLINK-5309,1 55310U 23010AT  23327.14209790  .00000245  00000-0  28329-4 0  9998,2 55310  69.9996 316.2937 0002699 267.2301  92.8549 14.98334577 47999,6950.179,96.107,573.92,570.168,0.0
55310.0,STARLINK-5309,PAYLOAD,2023-11-23 09:49:09,14.98335194,0.0002614,70.0,315.6201,270.8127,89.2733,6.7718e-05,7.15e-06,0.0,0 STARLINK-5309,1 55310U 23010AT  23327.40913606  .00000715  00000-0  67718-4 0  9992,2 55310  70.0000 315.6201 0002614 270.8127  89.2733 14.98335194 48350,6950.177,96.107,573.859,570.225,0.0
